#dP2024  5  9  0  0  0.00000000      97 __u+U IGS20 FIT  IAC
## 2313 345600.00000000   900.00000000 60439 0.0000000000000
+  119   C06C07C08C09C10C11C12C13C14C16C19C20C21C22C23C24C25
+        C26C27C28C29C30C32C33C34C35C36C37C38C39C40C41C42C43
+        C44C45C46E02E03E04E05E07E08E09E10E11E12E13E14E15E18
+        E19E21E24E25E26E27E30E31E33E34E36G02G03G04G05G06G07
+        G08G09G10G11G12G13G14G15G16G17G18G19G20G21G22G23G24
+        G25G26G27G28G29G30G31G32J02J03J04R01R02R03R04R05R07
+        R08R09R11R12R13R14R15R16R17R18R19R20R21R22R24R25R26
++         8  9  8  8  9  8  7  8  8  8  7  6  7  7  7  7  7
++         6  6  7  6  6  6  7  7  7  6  7 10  8  9  7  7  7
++         7  6  6  5  5  5  5  5  5  5  6  6  5  4  5  4  6
++         5  4  5  5  5  4  5  5  6  5  6  4  7  4  4  4  4
++         4  4  4  5  4  4  4  4  4  4  4  4  4  4  4  4  4
++         5  4  4  5  4  4  4  4 11 11 12  8  7  7  7  7  7
++         7  7  7  7  8  7  7  7  7  7  8  8  7  7  7  8  8
%c M  cc GPS ccc cccc cccc cccc cccc ccccc ccccc ccccc ccccc
%c cc cc ccc ccc cccc cccc cccc cccc ccccc ccccc ccccc ccccc
%f  1.2500000  1.025000000  0.00000000000  0.000000000000000
%f  0.0000000  0.000000000  0.00000000000  0.000000000000000
%i    0    0    0    0      0      0      0      0         0
%i    0    0    0    0      0      0      0      0         0
/* INFORMATION & ANALYSIS CENTER (IAC)            FINAL DATA
/* S/V CLOCKS ARE ALIGNED TO GNSS TIME                      
/* G:C1WC2W R:C1PC2P E:C1XC5X C:C2IC6I J:C1CC2S             
/* PCV:IGS20_2290 OL/AL:FES2004  NONE     YN ORB:CoN CLK:CoN
*  2024 05 09 15 15  0.00000000
PC06  -2288.563115  38137.904449  18227.530163    408.457490
PC07 -11795.928043  26063.559694 -30934.215266   -745.496127
PC08 -19618.557770  34431.310260  14102.480906    -98.727364
PC09   1284.612916  40827.966932  12183.042733   -876.930517
PC10  -2281.273859  27357.880134 -31679.288227     25.457489
PC11  -3778.894381  18257.560899 -20698.913170    553.735149
PC12 -17393.340625   1003.719176 -21767.730469   -243.386700
PC13 -12884.507942  34748.638050  20008.765192    434.854432
PC14 -14067.055085  14976.186136  18929.135932    841.147381
PC16  -5333.365299  35795.326673  22224.222828   -510.355579
PC19   3455.975073 -15897.214990 -22642.740781   -912.950251
PC20  21030.782814 -12236.357644 -13615.289780   -446.010670
PC21 -27532.088529    728.959637  -4600.100162   -966.252564
PC22 -17200.454448 -10681.283270 -19221.568096    -10.727750
PC23   7675.353033  18522.640044 -19403.872480   -778.283535
PC24 -16671.335797  19137.175339  11567.398498    926.399265
PC25  -5581.180327  26727.978595  -5726.648422    395.472078
PC26 -17247.462805   1124.387621  21886.823492   -288.854998
PC27  20834.171255   7530.949138  16951.530532    310.457931
PC28  18640.425519  20526.749326   3154.427945    237.878718
PC29  -4696.550733 -22682.912566  15551.747573    279.116725
PC30  12385.040897 -10241.871590  22800.595100    -73.302688
PC32  27477.405745   -851.576055   4737.251859   -619.311188
PC33  -3520.191771  15970.223345  22621.003826   -966.075220
PC34 -11153.425417  11749.116547 -22739.965091    429.974368
PC35 -19287.166996 -19936.619466  -2881.751807    367.307570
PC36   6251.444428 -26612.357805   5652.601626     76.389752
PC37  17231.103669   -548.110553 -21936.574896   -969.414621
PC38 -22722.316172  34807.375247   6734.861095    154.052074
PC39  -6679.423052  32825.891582  25825.049658     -8.288679
PC40 -16661.547589  19417.866565 -33582.569332    -69.341965
PC41  16365.634074  11114.949452  19727.029494   -943.683336
PC42 -22269.207122  11612.385793  12252.272731   -442.772865
PC43   3767.127835  22448.570598 -16172.311814     71.027187
PC44 -21229.170115  -6742.820077 -16811.757880    468.181102
PC45  -7436.474468 -18610.903487  19426.370171    -84.800653
PC46  16455.641408 -19702.691096 -10991.766870   -146.782317
PE02  20727.885083 -19863.334706   7228.062261    126.028714
PE03  12764.270104 -12257.390433 -23721.497695   -112.614924
PE04   8724.492208  19856.716660  20153.576931   -392.940759
PE05  26329.773216   2383.098262 -13294.975895   4746.123162
PE07 -24413.489709 -15890.822515  -5293.438268   -119.156350
PE08  -7938.359029 -19662.313266 -20653.576430   -267.984528
PE09  24345.570919  15915.735161   5443.064533   -436.692974
PE10   8660.471489  26295.655661  10466.687648   -623.470700
PE11  13472.712604  18470.212101  18797.897834   2897.865090
PE12   3017.477618  29421.613878   1477.056239  -1030.698516
PE13 -13228.564153 -18982.796956 -18455.604900    -21.481881
PE14  -6835.235145 -20159.784760  17500.605540     30.991957
PE15  -2697.105701 -29456.020590   -929.101943   -101.874545
PE18  -6692.134123  17832.658745 -22258.625385     91.498968
PE19 -14732.798793  10743.948200  23331.868776    -94.662153
PE21 -26173.479020   8666.576005  10771.513210   -593.588859
PE24  16329.924028   8443.102442 -23220.838602   -752.899303
PE25  26129.377505  -8336.703858 -11132.491745      4.300903
PE26 -15941.974637   3089.720564 -24748.357073    449.434437
PE27 -16548.299728  -8121.752876  23157.270394   -345.047852
PE30   2891.447604 -19982.929951  21634.971561   -282.616903
PE31  -2708.930571  19908.454434 -21733.586187    -23.032021
PE33  -9521.043687  22098.466280 -17241.232243     11.467545
PE34   9207.215473 -22518.272097  16854.611806   -110.277489
PE36  15846.909636  -2363.035269  24885.863492   -224.720896
PG02  14822.402756  -3853.849825  22172.955720   -439.223379
PG03  22914.709789 -12011.893404   5556.784657    354.508351
PG04  21461.377594  -1622.055333 -15633.749760    357.277434
PG05 -19848.632197    294.366811 -17867.038785   -172.093539
PG06  -5320.909046 -25551.504434  -4526.325615    281.824417
PG07   6509.079576 -22092.990397 -12290.404608   -125.184587
PG08  25401.108143   5216.387095   6592.625344    168.933343
PG09  10685.589747 -11812.204790 -21340.544154    190.065138
PG10  -2486.430583  17886.380974  19567.788493    -20.328394
PG11 -11922.121658 -17768.991902 -15745.463976   -657.896314
PG12 -23796.136863   9408.329232   6730.130310   -503.854020
PG13 -22714.083639 -14004.633386    248.778199    649.175653
PG14   6545.530128 -19336.032512  16912.102458    396.551539
PG15 -25742.663338  -2403.755227   6014.369890    157.188257
PG16  17909.112799   5025.708080 -19460.892355   -296.074664
PG17  -2742.167408 -17216.628518  20412.123484    707.624691
PG18  -6329.005790  22625.923431 -12182.490231   -607.950773
PG19 -12532.092271 -18607.713374  14332.763273    479.664815
PG20 -12673.060930  -8847.661991 -21530.643819    377.203428
PG21  15961.295298   2926.845505  21619.257059    122.619809
PG22   -893.886327 -16655.458661  21151.237383    -11.222467
PG23 -13739.559564  19843.338621  10885.428380    221.192174
PG24 -15586.654894   1523.622312  21050.911012   -467.987613
PG25 -20291.987284  16855.305822  -1711.907927    495.408592
PG26   7515.521175  14302.712665 -21195.075006    155.348236
PG27  22888.108256  13302.926263  -4400.210632    -23.137665
PG28   4952.276214  26028.346388  -1890.800582   -236.793383
PG29 -13928.659279   8747.216372 -20931.736900   -599.060910
PG30   -768.471693 -26252.528174  -2657.955477   -393.016290
PG31  10468.370587  21011.258286 -12247.194076   -227.876806
PG32   6764.675880  17462.428652  19123.643699   -618.359440
PJ02 -35515.173866  20709.131725  -4863.279681     -0.119240
PJ03 -19786.409692  26390.781222 -21646.727442      0.152336
PJ04 -28525.176325  28471.160466  18480.768590     50.346395
PR01  21528.057896  -5659.137743 -12435.031554     84.857716
PR02   6407.709261 -10157.925013 -22462.495628    -22.910853
PR03 -12799.167231  -9767.920810 -19714.004105     99.824173
PR04 -24361.918083  -4121.709571  -6286.726645    235.642934
PR05 -22933.802781   3677.979942  10539.512345    131.243983
PR07  13646.390630   9639.605243  19337.421233     82.010868
PR08  24470.151832   3910.553493   6175.210477    -75.386037
PR09 -10097.891773  22768.497642  -5684.515928    185.601077
PR11  11291.612881   2233.840351 -22750.417257     25.288146
PR12  16378.210241 -15546.575986 -11848.884156     39.938000
PR13  11791.703138 -22388.636241   3214.700342    -47.215911
PR14  -1173.524981 -16297.130971  19592.731124     26.451781
PR15 -12202.938198   -795.645393  22406.542074     79.981464
PR16 -16268.702151  15479.095919  12145.496514     25.434682
PR17 -11853.492877 -22607.547843   -320.827386     85.259728
PR18 -14768.931550 -13572.609949 -15716.646675    141.204433
PR19 -11130.314662    378.777586 -22954.292968   -276.010363
PR20    620.823762  19209.644603 -16793.257565   -112.536299
PR21  11595.787904  22705.556571    191.848398    -99.439771
PR22  14659.392621  12890.071340  16450.537573    113.004601
PR24  -1488.293071 -19612.863607  16259.903038    -55.120958
PR25  11040.906616  22977.441969    583.645238    -34.663365
PR26  24055.816053   4268.475957   7308.956177    -20.591328
EOF
